{
  "type": "FeatureCollection",
  "features": [
    {
      "type": "Feature",
      "properties": {
        "norad_id": 41866,
        "name": "GOES 16",
        "group": "weather",
        "lat": 0.024761077501569927,
        "lon": -122.20133267942224,
        "alt_km": 35775.48271322091,
        "timestamp": "2025-12-21T16:47:54.371745+00:00",
        "meta_object_name": "GOES 16",
        "meta_object_id": "2016-071A",
        "meta_epoch": "2025-12-21T10:26:59.836128",
        "meta_mean_motion": 1.00269386,
        "meta_eccentricity": 0.0002969,
        "meta_inclination": 0.0699,
        "meta_ra_of_asc_node": 104.2282,
        "meta_arg_of_pericenter": 159.8912,
        "meta_mean_anomaly": 238.2168,
        "meta_ephemeris_type": 0,
        "meta_classification_type": "U",
        "meta_norad_cat_id": 41866,
        "meta_element_set_no": 999,
        "meta_rev_at_epoch": 3332,
        "meta_bstar": 0,
        "meta_mean_motion_dot": -6.8e-07,
        "meta_mean_motion_ddot": 0,
        "tle_line1": "1 41866U 16071A   25355.43541477 -.00000068  00000+0  00000+0 0  9998",
        "tle_line2": "2 41866   0.0699 104.2282 0002969 159.8912 238.2168  1.00269386 33327"
      },
      "geometry": {
        "type": "Point",
        "coordinates": [
          -122.20133267942224,
          0.024761077501569927
        ]
      }
    },
    {
      "type": "Feature",
      "properties": {
        "norad_id": 41882,
        "name": "FENGYUN 4A",
        "group": "weather",
        "lat": 0.7825567353294663,
        "lon": 106.13331037092554,
        "alt_km": 35797.082154221804,
        "timestamp": "2025-12-21T16:47:54.371758+00:00",
        "meta_object_name": "FENGYUN 4A",
        "meta_object_id": "2016-077A",
        "meta_epoch": "2025-12-19T13:51:06.687072",
        "meta_mean_motion": 1.00266581,
        "meta_eccentricity": 0.0004506,
        "meta_inclination": 1.866,
        "meta_ra_of_asc_node": 82.3247,
        "meta_arg_of_pericenter": 142.8816,
        "meta_mean_anomaly": 194.7423,
        "meta_ephemeris_type": 0,
        "meta_classification_type": "U",
        "meta_norad_cat_id": 41882,
        "meta_element_set_no": 999,
        "meta_rev_at_epoch": 3312,
        "meta_bstar": 0,
        "meta_mean_motion_dot": -3.34e-06,
        "meta_mean_motion_ddot": 0,
        "tle_line1": "1 41882U 16077A   25353.57716073 -.00000334  00000+0  00000+0 0  9997",
        "tle_line2": "2 41882   1.8660  82.3247 0004506 142.8816 194.7423  1.00266581 33125"
      },
      "geometry": {
        "type": "Point",
        "coordinates": [
          106.13331037092554,
          0.7825567353294663
        ]
      }
    },
    {
      "type": "Feature",
      "properties": {
        "norad_id": 41884,
        "name": "CYGFM05",
        "group": "weather",
        "lat": -14.827531571630967,
        "lon": -33.67785749695966,
        "alt_km": 421.0624787580391,
        "timestamp": "2025-12-21T16:47:54.371769+00:00",
        "meta_object_name": "CYGFM05",
        "meta_object_id": "2016-078A",
        "meta_epoch": "2025-12-21T09:10:24.136320",
        "meta_mean_motion": 15.47935175,
        "meta_eccentricity": 0.0010843,
        "meta_inclination": 34.9606,
        "meta_ra_of_asc_node": 350.6634,
        "meta_arg_of_pericenter": 258.3827,
        "meta_mean_anomaly": 101.5678,
        "meta_ephemeris_type": 0,
        "meta_classification_type": "U",
        "meta_norad_cat_id": 41884,
        "meta_element_set_no": 999,
        "meta_rev_at_epoch": 50110,
        "meta_bstar": 0.00031526,
        "meta_mean_motion_dot": 0.00016973,
        "meta_mean_motion_ddot": 0,
        "tle_line1": "1 41884U 16078A   25355.38222380  .00016973  00000+0  31526-3 0  9990",
        "tle_line2": "2 41884  34.9606 350.6634 0010843 258.3827 101.5678 15.47935175501105"
      },
      "geometry": {
        "type": "Point",
        "coordinates": [
          -33.67785749695966,
          -14.827531571630967
        ]
      }
    },
    {
      "type": "Feature",
      "properties": {
        "norad_id": 41885,
        "name": "CYGFM04",
        "group": "weather",
        "lat": -29.13950201200162,
        "lon": -89.89948166306496,
        "alt_km": 410.07573083780153,
        "timestamp": "2025-12-21T16:47:54.371780+00:00",
        "meta_object_name": "CYGFM04",
        "meta_object_id": "2016-078B",
        "meta_epoch": "2025-12-21T07:46:40.834272",
        "meta_mean_motion": 15.50699821,
        "meta_eccentricity": 0.0009657,
        "meta_inclination": 34.9356,
        "meta_ra_of_asc_node": 325.5706,
        "meta_arg_of_pericenter": 282.921,
        "meta_mean_anomaly": 77.0434,
        "meta_ephemeris_type": 0,
        "meta_classification_type": "U",
        "meta_norad_cat_id": 41885,
        "meta_element_set_no": 999,
        "meta_rev_at_epoch": 50127,
        "meta_bstar": 0.00032492,
        "meta_mean_motion_dot": 0.00019293,
        "meta_mean_motion_ddot": 0,
        "tle_line1": "1 41885U 16078B   25355.32408373  .00019293  00000+0  32492-3 0  9994",
        "tle_line2": "2 41885  34.9356 325.5706 0009657 282.9210  77.0434 15.50699821501273"
      },
      "geometry": {
        "type": "Point",
        "coordinates": [
          -89.89948166306496,
          -29.13950201200162
        ]
      }
    },
    {
      "type": "Feature",
      "properties": {
        "norad_id": 41886,
        "name": "CYGFM02",
        "group": "weather",
        "lat": -0.06356419350915408,
        "lon": -38.77885004778048,
        "alt_km": 407.145192901311,
        "timestamp": "2025-12-21T16:47:54.371791+00:00",
        "meta_object_name": "CYGFM02",
        "meta_object_id": "2016-078C",
        "meta_epoch": "2025-12-21T07:32:12.876288",
        "meta_mean_motion": 15.52104529,
        "meta_eccentricity": 0.0011331,
        "meta_inclination": 34.9445,
        "meta_ra_of_asc_node": 323.8504,
        "meta_arg_of_pericenter": 283.548,
        "meta_mean_anomaly": 76.3981,
        "meta_ephemeris_type": 0,
        "meta_classification_type": "U",
        "meta_norad_cat_id": 41886,
        "meta_element_set_no": 999,
        "meta_rev_at_epoch": 50140,
        "meta_bstar": 0.00033642,
        "meta_mean_motion_dot": 0.00021032,
        "meta_mean_motion_ddot": 0,
        "tle_line1": "1 41886U 16078C   25355.31403792  .00021032  00000+0  33642-3 0  9996",
        "tle_line2": "2 41886  34.9445 323.8504 0011331 283.5480  76.3981 15.52104529501400"
      },
      "geometry": {
        "type": "Point",
        "coordinates": [
          -38.77885004778048,
          -0.06356419350915408
        ]
      }
    },
    {
      "type": "Feature",
      "properties": {
        "norad_id": 41887,
        "name": "CYGFM01",
        "group": "weather",
        "lat": 19.962036459923507,
        "lon": 22.218210776082138,
        "alt_km": 422.630738548306,
        "timestamp": "2025-12-21T16:47:54.371827+00:00",
        "meta_object_name": "CYGFM01",
        "meta_object_id": "2016-078D",
        "meta_epoch": "2025-12-21T08:54:17.164800",
        "meta_mean_motion": 15.485232,
        "meta_eccentricity": 0.001052,
        "meta_inclination": 34.9439,
        "meta_ra_of_asc_node": 353.0252,
        "meta_arg_of_pericenter": 251.1927,
        "meta_mean_anomaly": 108.7653,
        "meta_ephemeris_type": 0,
        "meta_classification_type": "U",
        "meta_norad_cat_id": 41887,
        "meta_element_set_no": 999,
        "meta_rev_at_epoch": 50104,
        "meta_bstar": 0.00031477,
        "meta_mean_motion_dot": 0.000173,
        "meta_mean_motion_ddot": 0,
        "tle_line1": "1 41887U 16078D   25355.37103200  .00017300  00000+0  31477-3 0  9991",
        "tle_line2": "2 41887  34.9439 353.0252 0010520 251.1927 108.7653 15.48523200501047"
      },
      "geometry": {
        "type": "Point",
        "coordinates": [
          22.218210776082138,
          19.962036459923507
        ]
      }
    },
    {
      "type": "Feature",
      "properties": {
        "norad_id": 41888,
        "name": "CYGFM08",
        "group": "weather",
        "lat": 28.20660937033489,
        "lon": 103.58119969805777,
        "alt_km": 419.2484539438119,
        "timestamp": "2025-12-21T16:47:54.371840+00:00",
        "meta_object_name": "CYGFM08",
        "meta_object_id": "2016-078E",
        "meta_epoch": "2025-12-21T06:59:16.414080",
        "meta_mean_motion": 15.49748097,
        "meta_eccentricity": 0.0011942,
        "meta_inclination": 34.9467,
        "meta_ra_of_asc_node": 336.439,
        "meta_arg_of_pericenter": 273.0676,
        "meta_mean_anomaly": 86.868,
        "meta_ephemeris_type": 0,
        "meta_classification_type": "U",
        "meta_norad_cat_id": 41888,
        "meta_element_set_no": 999,
        "meta_rev_at_epoch": 50126,
        "meta_bstar": 0.00032362,
        "meta_mean_motion_dot": 0.00018591,
        "meta_mean_motion_ddot": 0,
        "tle_line1": "1 41888U 16078E   25355.29116220  .00018591  00000+0  32362-3 0  9996",
        "tle_line2": "2 41888  34.9467 336.4390 0011942 273.0676  86.8680 15.49748097501264"
      },
      "geometry": {
        "type": "Point",
        "coordinates": [
          103.58119969805777,
          28.20660937033489
        ]
      }
    }
  ]
}